[{"OBJECT_NAME":"STARLINK-34524","OBJECT_ID":"2025-129V","EPOCH":"2026-03-09T10:51:52.549920","MEAN_MOTION":14.9833795,"ECCENTRICITY":0.00030047,"INCLINATION":70.0013,"RA_OF_ASC_NODE":74.9812,"ARG_OF_PERICENTER":266.741,"MEAN_ANOMALY":93.3405,"EPHEMERIS_TYPE":0,"CLASSIFICATION_TYPE":"U","NORAD_CAT_ID":64431,"ELEMENT_SET_NO":999,"REV_AT_EPOCH":4119,"BSTAR":-0.00085865845,"MEAN_MOTION_DOT":-0.00010325,"MEAN_MOTION_DDOT":0},{"OBJECT_NAME":"CZ-6A DEB","OBJECT_ID":"2024-140ACJ","EPOCH":"2026-03-09T13:34:40.812960","MEAN_MOTION":14.75825013,"ECCENTRICITY":0.00997158,"INCLINATION":89.1651,"RA_OF_ASC_NODE":293.465,"ARG_OF_PERICENTER":131.8399,"MEAN_ANOMALY":229.139,"EPHEMERIS_TYPE":0,"CLASSIFICATION_TYPE":"U","NORAD_CAT_ID":61818,"ELEMENT_SET_NO":999,"REV_AT_EPOCH":7745,"BSTAR":0.0027745795,"MEAN_MOTION_DOT":0.00020689,"MEAN_MOTION_DDOT":0}]
